NORAD_CAT_ID,OBJECT_NAME,OBJECT_TYPE,EPOCH,MEAN_MOTION,ECCENTRICITY,INCLINATION,RA_OF_ASC_NODE,ARG_OF_PERICENTER,MEAN_ANOMALY,BSTAR,MEAN_MOTION_DOT,MEAN_MOTION_DDOT,TLE_LINE0,TLE_LINE1,TLE_LINE2,SEMIMAJOR_AXIS,PERIOD,APOGEE,PERIGEE,DECAYED
53636.0,STARLINK-4586,PAYLOAD,2022-12-03 06:00:00,15.08859097,0.0001445,53.2141,177.0067,68.7333,154.7716,-0.001952,-0.00031236,0.0,0 STARLINK-4586,1 53636U 22104BA  22337.25001157 -.00031236  00000-0 -19520-2 0  9996,2 53636  53.2141 177.0067 0001445  68.7333 154.7716 15.08859097 15181,6917.821999999999,95.436,540.687,538.687,0.0
53636.0,STARLINK-4586,PAYLOAD,2022-12-03 14:00:01,15.08850854,0.000148,53.2141,175.5099,75.6236,159.4813,0.00026681,3.962e-05,0.0,0 STARLINK-4586,1 53636U 22104BA  22337.58334491  .00003962  00000-0  26681-3 0  9992,2 53636  53.2141 175.5099 0001480  75.6236 159.4813 15.08850854  1308,6917.847,95.437,540.736,538.688,0.0
53636.0,STARLINK-4586,PAYLOAD,2022-12-03 22:00:00,15.08837477,0.0001564,53.2141,174.0151,65.6605,181.0586,0.0011206,0.0001759,0.0,0 STARLINK-4586,1 53636U 22104BA  22337.91667824  .00017590  00000-0  11206-2 0  9996,2 53636  53.2141 174.0151 0001564  65.6605 181.0586 15.08837477  1307,6917.888000000001,95.438,540.835,538.6709999999998,0.0
53636.0,STARLINK-4586,PAYLOAD,2022-12-04 14:00:01,15.0883093,0.0001409,53.2156,171.0204,73.0641,196.8403,8.557299999999999e-05,1.074e-05,0.0,0 STARLINK-4586,1 53636U 22104BA  22338.58334491  .00001074  00000-0  85573-4 0  9991,2 53636  53.2156 171.0204 0001409  73.0641 196.8403 15.08830930  1309,6917.908,95.438,540.748,538.798,0.0
53636.0,STARLINK-4586,PAYLOAD,2022-12-04 22:00:00,15.08811621,0.0001534,53.2156,169.5257,62.8269,218.6665,0.0019652,0.00031102,0.0,0 STARLINK-4586,1 53636U 22104BA  22338.91667824  .00031102  00000-0  19652-2 0  9995,2 53636  53.2156 169.5257 0001534  62.8269 218.6665 15.08811621  1309,6917.967,95.439,540.893,538.771,0.0
53636.0,STARLINK-4586,PAYLOAD,2022-12-05 14:00:01,15.08843909,0.0001464,53.2155,166.5311,71.1441,233.5683,-0.00030907,-5.204e-05,0.0,0 STARLINK-4586,1 53636U 22104BA  22339.58335648 -.00005204  00000-0 -30907-3 0  9998,2 53636  53.2155 166.5311 0001464  71.1441 233.5683 15.08843909 15533,6917.868,95.437,540.746,538.721,0.0
53636.0,STARLINK-4586,PAYLOAD,2022-12-05 19:00:51,15.08840183,0.0001508,53.2176,165.5941,68.1542,291.961,-2.3991e-05,-6.7e-06,0.0,0 STARLINK-4586,1 53636U 22104BA  22339.79226739 -.00000670  00000-0 -23991-4 0  9999,2 53636  53.2176 165.5941 0001508  68.1542 291.9610 15.08840183 16597,6917.88,95.438,540.788,538.702,0.0
53636.0,STARLINK-4586,PAYLOAD,2022-12-05 22:11:37,15.0887203,0.0001393,53.2176,164.9993,65.0374,295.0763,-0.00040072,-6.665e-05,0.0,0 STARLINK-4586,1 53636U 22104BA  22339.92474120 -.00006665  00000-0 -40072-3 0  9991,2 53636  53.2176 164.9993 0001393  65.0374 295.0763 15.08872030 15597,6917.781999999997,95.436,540.611,538.684,0.0
53636.0,STARLINK-4586,PAYLOAD,2022-12-06 12:30:06,15.08845333,0.0001504,53.2176,162.3232,65.0961,295.0187,-2.6633e-05,-7.12e-06,0.0,0 STARLINK-4586,1 53636U 22104BA  22340.52090354 -.00000712  00000-0 -26633-4 0  9997,2 53636  53.2176 162.3232 0001504  65.0961 295.0187 15.08845333 15687,6917.864000000001,95.437,540.77,538.689,0.0
53636.0,STARLINK-4586,PAYLOAD,2022-12-06 18:51:38,15.08847008,0.0001514,53.2176,161.1335,66.165,293.95,-7.4422e-06,-4.06e-06,0.0,0 STARLINK-4586,1 53636U 22104BA  22340.78586104 -.00000406  00000-0 -74422-5 0  9998,2 53636  53.2176 161.1335 0001514  66.1650 293.9500 15.08847008 16741,6917.859,95.437,540.771,538.677,0.0
53636.0,STARLINK-4586,PAYLOAD,2022-12-07 12:20:53,15.08835209,0.0001508,53.2177,157.8625,66.7124,293.4027,2.6067e-05,1.27e-06,0.0,0 STARLINK-4586,1 53636U 22104BA  22341.51450896  .00000127  00000-0  26067-4 0  9997,2 53636  53.2177 157.8625 0001508  66.7124 293.4027 15.08835209 15839,6917.895,95.438,540.803,538.717,0.0
53636.0,STARLINK-4586,PAYLOAD,2022-12-07 20:17:49,15.0883269,0.000149,53.2176,156.3755,66.0683,294.0465,-2.4176e-05,-6.73e-06,0.0,0 STARLINK-4586,1 53636U 22104BA  22341.84571345 -.00000673  00000-0 -24176-4 0  9993,2 53636  53.2176 156.3755 0001490  66.0683 294.0465 15.08832690 16902,6917.903,95.438,540.799,538.737,0.0
53636.0,STARLINK-4586,PAYLOAD,2022-12-08 12:11:40,15.08840611,0.0001489,53.2177,153.4019,65.6016,294.5131,-2.4685e-06,-3.27e-06,0.0,0 STARLINK-4586,1 53636U 22104BA  22342.50810881 -.00000327  00000-0 -24685-5 0  9990,2 53636  53.2177 153.4019 0001489  65.6016 294.5131 15.08840611 17006,6917.879,95.438,540.774,538.7130000000002,0.0
53636.0,STARLINK-4586,PAYLOAD,2022-12-08 18:33:12,15.08842168,0.0001444,53.2176,152.2125,64.2533,295.8608,1.2829e-05,-8.4e-07,0.0,0 STARLINK-4586,1 53636U 22104BA  22342.77306702 -.00000084  00000-0  12829-4 0  9996,2 53636  53.2176 152.2125 0001444  64.2533 295.8608 15.08842168 16023,6917.874,95.437,540.738,538.74,0.0
53636.0,STARLINK-4586,PAYLOAD,2022-12-09 10:27:03,15.08852126,0.0001898,53.2185,149.2418,79.6573,280.4633,0.00013963,1.935e-05,0.0,0 STARLINK-4586,1 53636U 22104BA  22343.43545714  .00001935  00000-0  13963-3 0  9992,2 53636  53.2185 149.2418 0001898  79.6573 280.4633 15.08852126 17148,6917.843000000003,95.437,541.021,538.395,0.0
53636.0,STARLINK-4586,PAYLOAD,2022-12-09 21:34:50,15.08788895,0.0001047,53.2187,147.1621,78.5647,281.5463,-0.00044578,-7.365e-05,0.0,0 STARLINK-4586,1 53636U 22104BA  22343.89919231 -.00007365  00000-0 -44578-3 0  9992,2 53636  53.2187 147.1621 0001047  78.5647 281.5463 15.08788895 16197,6918.0369999999975,95.441,540.626,539.177,0.0
53636.0,STARLINK-4586,PAYLOAD,2022-12-10 13:28:24,15.09066018,5.290000000000001e-05,53.219,144.1881,259.8882,100.205,0.00038342,5.857e-05,0.0,0 STARLINK-4586,1 53636U 22104BA  22344.56139503  .00005857  00000-0  38342-3 0  9997,2 53636  53.2190 144.1881 0000529 259.8882 100.2050 15.09066018 17316,6917.19,95.423,539.4209999999998,538.689,0.0
53636.0,STARLINK-4586,PAYLOAD,2022-12-10 18:14:47,15.08836222,0.0001264,53.2186,143.2948,41.4391,318.6697,0.00013717,1.896e-05,0.0,0 STARLINK-4586,1 53636U 22104BA  22344.76027057  .00001896  00000-0  13717-3 0  9997,2 53636  53.2186 143.2948 0001264  41.4391 318.6697 15.08836222 16325,6917.892,95.438,540.631,538.883,0.0
53636.0,STARLINK-4586,PAYLOAD,2022-12-10 23:00:56,15.08845065,0.0001465,53.2181,142.4001,67.0769,293.0378,4.1346000000000014e-05,3.700000000000001e-06,0.0,0 STARLINK-4586,1 53636U 22104BA  22344.95898717  .00000370  00000-0  41346-4 0  9993,2 53636  53.2181 142.4001 0001465  67.0769 293.0378 15.08845065 16357,6917.865,95.437,540.743,538.716,0.0
53636.0,STARLINK-4586,PAYLOAD,2022-12-11 11:44:01,15.08849646,2.98e-05,53.2183,140.0202,89.823,270.2796,-8.8422e-05,-1.695e-05,0.0,0 STARLINK-4586,1 53636U 22104BA  22345.48890269 -.00001695  00000-0 -88422-4 0  9995,2 53636  53.2183 140.0202 0000298  89.8230 270.2796 15.08849646 17456,6917.851,95.437,539.922,539.51,0.0
53636.0,STARLINK-4586,PAYLOAD,2022-12-11 18:05:34,15.08833844,0.0001519,53.2184,138.8314,64.8392,295.2757,5.3317e-05,5.61e-06,0.0,0 STARLINK-4586,1 53636U 22104BA  22345.75387386  .00000561  00000-0  53317-4 0  9990,2 53636  53.2184 138.8314 0001519  64.8392 295.2757 15.08833844 16473,6917.899,95.438,540.815,538.7130000000002,0.0
53636.0,STARLINK-4586,PAYLOAD,2022-12-13 03:28:40,15.08840152,0.0001396999999999,53.2182,132.5863,72.5646,287.5498,-7.495e-06,-4.07e-06,0.0,0 STARLINK-4586,1 53636U 22104BA  22347.14491318 -.00000407  00000-0 -74950-5 0  9994,2 53636  53.2182 132.5863 0001397  72.5646 287.5498 15.08840152 16682,6917.88,95.438,540.711,538.778,0.0
53636.0,STARLINK-4586,PAYLOAD,2022-12-13 16:11:45,15.08838811,0.0001472,53.2183,130.208,66.6578,293.4569,5.303e-05,5.56e-06,0.0,0 STARLINK-4586,1 53636U 22104BA  22347.67483101  .00000556  00000-0  53030-4 0  9991,2 53636  53.2183 130.2080 0001472  66.6578 293.4569 15.08838811 17787,6917.884,95.438,540.7669999999998,538.731,0.0
53636.0,STARLINK-4586,PAYLOAD,2022-12-14 09:40:59,15.088408,0.0001262999999999,53.2193,126.9376,54.556,305.555,2.713300000000001e-05,1.44e-06,0.0,0 STARLINK-4586,1 53636U 22104BA  22348.40347043  .00000144  00000-0  27133-4 0  9995,2 53636  53.2193 126.9376 0001263  54.5560 305.5550 15.08840800 16878,6917.878000000002,95.438,540.617,538.869,0.0
53636.0,STARLINK-4586,PAYLOAD,2022-12-14 16:02:32,15.08832177,0.0001418,53.2169,125.7483,56.4939,303.6188,5.3542e-05,5.64e-06,0.0,0 STARLINK-4586,1 53636U 22104BA  22348.66843226  .00000564  00000-0  53542-4 0  9996,2 53636  53.2169 125.7483 0001418  56.4939 303.6188 15.08832177 17932,6917.904,95.438,540.75,538.788,0.0
53636.0,STARLINK-4586,PAYLOAD,2022-12-15 12:42:34,15.08832694,0.0001365,53.2178,121.8836,53.8083,306.3035,-1.9081e-05,-5.91e-06,0.0,0 STARLINK-4586,1 53636U 22104BA  22349.52956039 -.00000591  00000-0 -19081-4 0  9991,2 53636  53.2178 121.8836 0001365  53.8083 306.3035 15.08832694 18063,6917.903,95.438,540.712,538.823,0.0
53636.0,STARLINK-4586,PAYLOAD,2022-12-15 14:17:57,15.08834858,0.0001351999999999,53.2181,121.5868,52.2811,307.8304,-1.9472e-05,-5.98e-06,0.0,0 STARLINK-4586,1 53636U 22104BA  22349.59579943 -.00000598  00000-0 -19472-4 0  9994,2 53636  53.2181 121.5868 0001352  52.2811 307.8304 15.08834858 17054,6917.896,95.438,540.696,538.826,0.0
53636.0,STARLINK-4586,PAYLOAD,2022-12-15 19:04:06,15.08838084,0.0001326,53.2184,120.6934,51.8152,308.2959,2.5967e-05,1.25e-06,0.0,0 STARLINK-4586,1 53636U 22104BA  22349.79451634  .00000125  00000-0  25967-4 0  9992,2 53636  53.2184 120.6934 0001326  51.8152 308.2959 15.08838084 18108,6917.886,95.438,540.669,538.8340000000002,0.0
53636.0,STARLINK-4586,PAYLOAD,2022-12-16 01:25:38,15.08843183,0.0001413,53.2183,119.5044,53.1833,306.9289,7.8942e-05,9.69e-06,0.0,0 STARLINK-4586,1 53636U 22104BA  22350.05947147  .00000969  00000-0  78942-4 0  9999,2 53636  53.2183 119.5044 0001413  53.1833 306.9289 15.08843183 17122,6917.871,95.437,540.7130000000002,538.758,0.0
